[{"OBJECT_NAME":"STARLINK-5936","OBJECT_ID":"2023-042AB","EPOCH":"2026-03-09T22:00:01.999584","MEAN_MOTION":15.07665252,"ECCENTRICITY":0.00013531,"INCLINATION":43.0004,"RA_OF_ASC_NODE":42.1788,"ARG_OF_PERICENTER":245.481,"MEAN_ANOMALY":15.1983,"EPHEMERIS_TYPE":0,"CLASSIFICATION_TYPE":"U","NORAD_CAT_ID":56011,"ELEMENT_SET_NO":999,"REV_AT_EPOCH":572,"BSTAR":0.003841084,"MEAN_MOTION_DOT":0.00059849,"MEAN_MOTION_DDOT":0},{"OBJECT_NAME":"CZ-6A DEB","OBJECT_ID":"2022-151ABN","EPOCH":"2026-03-09T19:31:34.351392","MEAN_MOTION":14.91930226,"ECCENTRICITY":0.0114204,"INCLINATION":98.6988,"RA_OF_ASC_NODE":184.3801,"ARG_OF_PERICENTER":80.6585,"MEAN_ANOMALY":280.7523,"EPHEMERIS_TYPE":0,"CLASSIFICATION_TYPE":"U","NORAD_CAT_ID":56246,"ELEMENT_SET_NO":999,"REV_AT_EPOCH":15979,"BSTAR":0.001440011,"MEAN_MOTION_DOT":0.00016487,"MEAN_MOTION_DDOT":0}]
